NORAD_CAT_ID,OBJECT_NAME,OBJECT_TYPE,EPOCH,MEAN_MOTION,ECCENTRICITY,INCLINATION,RA_OF_ASC_NODE,ARG_OF_PERICENTER,MEAN_ANOMALY,BSTAR,MEAN_MOTION_DOT,MEAN_MOTION_DDOT,TLE_LINE0,TLE_LINE1,TLE_LINE2,SEMIMAJOR_AXIS,PERIOD,APOGEE,PERIGEE,DECAYED
55937.0,STARLINK-5913,PAYLOAD,2023-04-18 07:50:36,15.69933366,0.0003402,70.0002,92.3423,266.39,93.6907,2.5082e-05,2.805e-05,0.0,0 STARLINK-5913,1 55937U 23037Z   23108.32680562  .00002805  00000-0  25082-4 0  9996,2 55937  70.0002  92.3423 0003402 266.3900  93.6907 15.69933366  5143,6737.225,91.724,361.382,356.798,0.0
55937.0,STARLINK-5913,PAYLOAD,2023-04-19 08:18:38,15.69928579,0.0002674,70.0006,89.474,263.9655,96.1236,2.3999e-05,2.674e-05,0.0,0 STARLINK-5913,1 55937U 23037Z   23109.34627660  .00002674  00000-0  23999-4 0  9998,2 55937  70.0006  89.4740 0002674 263.9655  96.1236 15.69928579  5644,6737.238,91.724,360.905,357.302,0.0
55937.0,STARLINK-5913,PAYLOAD,2023-04-19 15:57:24,15.69913678,0.0003377,70.0007,88.5797,263.6396,96.4415,-1.6799e-06,-4.15e-06,0.0,0 STARLINK-5913,1 55937U 23037Z   23109.66486581 -.00000415  00000-0 -16799-5 0  9992,2 55937  70.0007  88.5797 0003377 263.6396  96.4415 15.69913678  5351,6737.281,91.725,361.421,356.871,0.0
55937.0,STARLINK-5913,PAYLOAD,2023-04-20 07:14:54,15.69941931,0.0002891,70.002,86.7881,261.3394,98.7474,2.8682e-05,3.24e-05,0.0,0 STARLINK-5913,1 55937U 23037Z   23110.30202035  .00003240  00000-0  28682-4 0  9995,2 55937  70.0020  86.7881 0002891 261.3394  98.7474 15.69941931  5457,6737.2,91.723,361.013,357.117,0.0
55937.0,STARLINK-5913,PAYLOAD,2023-04-21 06:11:11,15.69943728,0.000321,70.0018,84.101,261.2396,98.8436,6.3304e-05,7.412e-05,0.0,0 STARLINK-5913,1 55937U 23037Z   23111.25777230  .00007412  00000-0  63304-4 0  9999,2 55937  70.0018  84.1010 0003210 261.2396  98.8436 15.69943728  5946,6737.195,91.723,361.223,356.897,0.0
55937.0,STARLINK-5913,PAYLOAD,2023-04-21 07:42:57,15.699149,0.0003306,70.0013,83.9215,266.4539,93.6278,-1.6063e-05,-2.143e-05,0.0,0 STARLINK-5913,1 55937U 23037Z   23111.32149904 -.00002143  00000-0 -16063-4 0  9996,2 55937  70.0013  83.9215 0003306 266.4539  93.6278 15.69914900  5955,6737.277,91.725,361.37,356.915,0.0
55937.0,STARLINK-5913,PAYLOAD,2023-04-21 21:28:43,15.69925463,0.0003479,70.0,82.3096,272.8213,87.2584,1.718e-05,1.854e-05,0.0,0 STARLINK-5913,1 55937U 23037Z   23111.89494704  .00001854  00000-0  17180-4 0  9996,2 55937  70.0000  82.3096 0003479 272.8213  87.2584 15.69925463  5700,6737.247,91.724,361.456,356.768,0.0
55937.0,STARLINK-5913,PAYLOAD,2023-04-21 23:00:28,15.69927644,0.0003417,69.9999,82.1304,273.6815,86.3989,1.9485e-05,2.131e-05,0.0,0 STARLINK-5913,1 55937U 23037Z   23111.95866272  .00002131  00000-0  19485-4 0  9995,2 55937  69.9999  82.1304 0003417 273.6815  86.3989 15.69927644  5716,6737.241,91.724,361.408,356.804,0.0
55937.0,STARLINK-5913,PAYLOAD,2023-04-22 08:10:58,15.69933109,0.0003608,70.0016,81.0533,276.7656,83.3129,2.6202e-05,2.94e-05,0.0,0 STARLINK-5913,1 55937U 23037Z   23112.34096000  .00002940  00000-0  26202-4 0  9996,2 55937  70.0016  81.0533 0003608 276.7656  83.3129 15.69933109  5772,6737.225,91.724,361.521,356.66,0.0
55937.0,STARLINK-5913,PAYLOAD,2023-04-23 04:03:46,15.69923238,0.0002764,70.0019,78.7273,263.9002,96.1879,6.9176e-06,6.19e-06,0.0,0 STARLINK-5913,1 55937U 23037Z   23113.16928412  .00000619  00000-0  69176-5 0  9997,2 55937  70.0019  78.7273 0002764 263.9002  96.1879 15.69923238  6243,6737.254,91.724,360.981,357.256,0.0
55937.0,STARLINK-5913,PAYLOAD,2023-04-23 20:53:02,15.69936184,0.0002839,70.0033,76.7556,258.2557,101.832,5.1419e-05,5.977e-05,0.0,0 STARLINK-5913,1 55937U 23037Z   23113.87016449  .00005977  00000-0  51419-4 0  9995,2 55937  70.0033  76.7556 0002839 258.2557 101.8320 15.69936184  6010,6737.217,91.723,360.994,357.169,0.0
55937.0,STARLINK-5913,PAYLOAD,2023-04-23 23:56:32,15.69948079,0.0002796,70.0035,76.3973,255.3064,104.7822,0.00013193,0.00015695,0.0,0 STARLINK-5913,1 55937U 23037Z   23113.99759771  .00015695  00000-0  13193-3 0  9994,2 55937  70.0035  76.3973 0002796 255.3064 104.7822 15.69948079  6378,6737.183,91.723,360.931,357.164,0.0
55937.0,STARLINK-5913,PAYLOAD,2023-04-25 04:59:50,15.69893267,0.0003344,70.0022,72.9941,241.9928,118.093,-7.0247e-05,-8.64e-05,0.0,0 STARLINK-5913,1 55937U 23037Z   23115.20822792 -.00008640  00000-0 -70247-4 0  9992,2 55937  70.0022  72.9941 0003344 241.9928 118.0930 15.69893267  6568,6737.339,91.726,361.457,356.951,0.0
55937.0,STARLINK-5913,PAYLOAD,2023-04-25 06:31:35,15.69904948,0.0003319,70.0028,72.8181,241.658,118.4281,-3.6114e-05,-4.549e-05,0.0,0 STARLINK-5913,1 55937U 23037Z   23115.27194393 -.00004549  00000-0 -36114-4 0  9997,2 55937  70.0028  72.8181 0003319 241.6580 118.4281 15.69904948  6575,6737.306,91.725,361.407,356.935,0.0
55937.0,STARLINK-5913,PAYLOAD,2023-04-26 06:59:25,15.70468659,0.0005039,70.0031,69.9494,293.0611,67.0054,0.0018049,0.00227955,0.0,0 STARLINK-5913,1 55937U 23037Z   23116.29126204  .00227955  00000-0  18049-2 0  9997,2 55937  70.0031  69.9494 0005039 293.0611  67.0054 15.70468659  6393,6735.694,91.692,360.953,354.165,0.0
55937.0,STARLINK-5913,PAYLOAD,2023-04-26 16:10:08,15.69910421,0.0003085,70.0028,68.8766,253.521,106.5647,8.8773e-05,0.00010468,0.0,0 STARLINK-5913,1 55937U 23037Z   23116.67371502  .00010468  00000-0  88773-4 0  9994,2 55937  70.0028  68.8766 0003085 253.5210 106.5647 15.69910421  6455,6737.29,91.725,361.234,357.077,0.0
55937.0,STARLINK-5913,PAYLOAD,2023-04-27 02:52:26,15.6989135,0.0002922,70.0029,67.6229,257.3654,102.7215,-3.0357e-06,-5.77e-06,0.0,0 STARLINK-5913,1 55937U 23037Z   23117.11974634 -.00000577  00000-0 -30357-5 0  9997,2 55937  70.0029  67.6229 0002922 257.3654 102.7215 15.69891350  6863,6737.345,91.726,361.178,357.241,0.0
55937.0,STARLINK-5913,PAYLOAD,2023-04-27 05:55:54,15.69936387,0.0003669,70.0023,67.2648,241.3906,118.6921,4.4338e-05,5.125e-05,0.0,0 STARLINK-5913,1 55937U 23037Z   23117.24715437  .00005125  00000-0  44338-4 0  9990,2 55937  70.0023  67.2648 0003669 241.3906 118.6921 15.69936387  6545,6737.216,91.723,361.553,356.609,0.0
55937.0,STARLINK-5913,PAYLOAD,2023-04-27 21:13:24,15.69939307,0.0003578,70.0005,65.4718,265.7561,94.3226,2.9076e-06,1.37e-06,0.0,0 STARLINK-5913,1 55937U 23037Z   23117.88431410  .00000137  00000-0  29076-5 0  9997,2 55937  70.0005  65.4718 0003578 265.7561  94.3226 15.69939307  6980,6737.208,91.723,361.483,356.662,0.0
55937.0,STARLINK-5913,PAYLOAD,2023-04-28 06:23:56,15.69921607,0.0003271,70.0009,64.3967,262.564,97.5184,-2.4597e-05,-3.169e-05,0.0,0 STARLINK-5913,1 55937U 23037Z   23118.26662058 -.00003169  00000-0 -24597-4 0  9996,2 55937  70.0009  64.3967 0003271 262.5640  97.5184 15.69921607  7041,6737.258,91.724,361.327,356.92,0.0
55937.0,STARLINK-5913,PAYLOAD,2023-04-29 05:20:12,15.69926904,0.0003359,70.0005,61.7086,268.4327,91.6484,3.0353e-05,3.439e-05,0.0,0 STARLINK-5913,1 55937U 23037Z   23119.22237060  .00003439  00000-0  30353-4 0  9999,2 55937  70.0005  61.7086 0003359 268.4327  91.6484 15.69926904  6855,6737.243,91.724,361.371,356.845,0.0
55937.0,STARLINK-5913,PAYLOAD,2023-04-29 23:41:14,15.6992472,0.0003224,70.001,59.5587,266.0582,94.0246,1.2119e-05,1.245e-05,0.0,0 STARLINK-5913,1 55937U 23037Z   23119.98697269  .00001245  00000-0  12119-4 0  9996,2 55937  70.0010  59.5587 0003224 266.0582  94.0246 15.69924720  7319,6737.249,91.724,361.286,356.942,0.0
55937.0,STARLINK-5913,PAYLOAD,2023-04-30 05:48:14,15.69928452,0.0003282,70.001,58.842,266.6795,93.4025,2.1948e-05,2.428e-05,0.0,0 STARLINK-5913,1 55937U 23037Z   23120.24183805  .00002428  00000-0  21948-4 0  9997,2 55937  70.0010  58.8420 0003282 266.6795  93.4025 15.69928452  7014,6737.239,91.724,361.315,356.893,0.0
55937.0,STARLINK-5913,PAYLOAD,2023-05-01 04:44:31,15.69927912,0.0003173,70.0007,56.1541,267.6582,92.425,2.1093e-05,2.325e-05,0.0,0 STARLINK-5913,1 55937U 23037Z   23121.19759119  .00002325  00000-0  21093-4 0  9996,2 55937  70.0007  56.1541 0003173 267.6582  92.4250 15.69927912  7502,6737.24,91.724,361.243,356.968,0.0
55937.0,STARLINK-5913,PAYLOAD,2023-05-01 06:16:17,15.69926167,0.0003,70.0012,55.9756,270.2133,89.8719,2.1375e-05,2.358e-05,0.0,0 STARLINK-5913,1 55937U 23037Z   23121.26130976  .00002358  00000-0  21375-4 0  9997,2 55937  70.0012  55.9756 0003000 270.2133  89.8719 15.69926167  7178,6737.245,91.724,361.131,357.089,0.0
55937.0,STARLINK-5913,PAYLOAD,2023-05-01 21:33:48,15.69931555,0.0003147,70.0021,54.1854,269.6521,90.4314,2.7188e-05,3.059e-05,0.0,0 STARLINK-5913,1 55937U 23037Z   23121.89847369  .00003059  00000-0  27188-4 0  9994,2 55937  70.0021  54.1854 0003147 269.6521  90.4314 15.69931555  7270,6737.23,91.724,361.215,356.975,0.0
55937.0,STARLINK-5913,PAYLOAD,2023-05-02 05:12:33,15.69932536,0.000325,70.0012,53.2883,271.7284,88.3539,1.9547e-05,2.139e-05,0.0,0 STARLINK-5913,1 55937U 23037Z   23122.21705618  .00002139  00000-0  19547-4 0  9999,2 55937  70.0012  53.2883 0003250 271.7284  88.3539 15.69932536  7665,6737.227,91.724,361.282,356.902,0.0
55937.0,STARLINK-5913,PAYLOAD,2023-05-02 18:58:20,15.69923421,0.0002694,70.0021,51.6765,258.5692,101.5201,5.6439e-06,4.66e-06,0.0,0 STARLINK-5913,1 55937U 23037Z   23122.79051073  .00000466  00000-0  56439-5 0  9994,2 55937  70.0021  51.6765 0002694 258.5692 101.5201 15.69923421  7750,6737.253,91.724,360.933,357.303,0.0
55937.0,STARLINK-5913,PAYLOAD,2023-05-02 20:30:05,15.6991795,0.0003482,70.0021,51.4976,268.098,91.9817,-8.4064e-06,-1.223e-05,0.0,0 STARLINK-5913,1 55937U 23037Z   23122.85422956 -.00001223  00000-0 -84064-5 0  9992,2 55937  70.0021  51.4976 0003482 268.0980  91.9817 15.69917950  7423,6737.269,91.725,361.48,356.788,0.0
55937.0,STARLINK-5913,PAYLOAD,2023-05-03 05:40:36,15.69922189,0.0002873,70.0025,50.4232,249.5135,110.5752,5.8774e-06,4.94e-06,0.0,0 STARLINK-5913,1 55937U 23037Z   23123.23652982  .00000494  00000-0  58774-5 0  9995,2 55937  70.0025  50.4232 0002873 249.5135 110.5752 15.69922189  7482,6737.257,91.724,361.057,357.186,0.0
